[{"OBJECT_NAME":"STARLINK-3607","OBJECT_ID":"2022-017AT","EPOCH":"2026-03-20T07:06:59.989824","MEAN_MOTION":15.08831152,"ECCENTRICITY":0.0001547,"INCLINATION":53.2174,"RA_OF_ASC_NODE":291.468,"ARG_OF_PERICENTER":79.7586,"MEAN_ANOMALY":280.358,"EPHEMERIS_TYPE":0,"CLASSIFICATION_TYPE":"U","NORAD_CAT_ID":51809,"ELEMENT_SET_NO":999,"REV_AT_EPOCH":22566,"BSTAR":0.00018083,"MEAN_MOTION_DOT":2.59e-5,"MEAN_MOTION_DDOT":0},{"OBJECT_NAME":"STARLINK-3613","OBJECT_ID":"2022-017AU","EPOCH":"2026-03-20T20:44:27.680928","MEAN_MOTION":15.08836509,"ECCENTRICITY":0.0001353,"INCLINATION":53.2175,"RA_OF_ASC_NODE":279.1784,"ARG_OF_PERICENTER":92.22,"MEAN_ANOMALY":267.8947,"EPHEMERIS_TYPE":0,"CLASSIFICATION_TYPE":"U","NORAD_CAT_ID":51810,"ELEMENT_SET_NO":999,"REV_AT_EPOCH":22576,"BSTAR":3.6607e-5,"MEAN_MOTION_DOT":2.95e-6,"MEAN_MOTION_DDOT":0},{"OBJECT_NAME":"STARLINK-3569","OBJECT_ID":"2022-017AV","EPOCH":"2026-03-20T13:23:15.936576","MEAN_MOTION":15.08834148,"ECCENTRICITY":0.00015433,"INCLINATION":53.2178,"RA_OF_ASC_NODE":290.3326,"ARG_OF_PERICENTER":89.2855,"MEAN_ANOMALY":270.8314,"EPHEMERIS_TYPE":0,"CLASSIFICATION_TYPE":"U","NORAD_CAT_ID":51811,"ELEMENT_SET_NO":999,"REV_AT_EPOCH":22560,"BSTAR":4.7109539e-5,"MEAN_MOTION_DOT":4.62e-6,"MEAN_MOTION_DDOT":0},{"OBJECT_NAME":"STARLINK-3610","OBJECT_ID":"2022-017AW","EPOCH":"2026-03-20T13:35:11.009760","MEAN_MOTION":15.08839407,"ECCENTRICITY":0.00015699,"INCLINATION":53.2164,"RA_OF_ASC_NODE":280.2957,"ARG_OF_PERICENTER":97.0507,"MEAN_ANOMALY":263.0664,"EPHEMERIS_TYPE":0,"CLASSIFICATION_TYPE":"U","NORAD_CAT_ID":51812,"ELEMENT_SET_NO":999,"REV_AT_EPOCH":22572,"BSTAR":2.003243e-6,"MEAN_MOTION_DOT":-2.56e-6,"MEAN_MOTION_DDOT":0},{"OBJECT_NAME":"STARLINK-3552","OBJECT_ID":"2022-017AX","EPOCH":"2026-03-20T06:47:09.745152","MEAN_MOTION":15.08848779,"ECCENTRICITY":0.0001349,"INCLINATION":53.2173,"RA_OF_ASC_NODE":281.5976,"ARG_OF_PERICENTER":90.4037,"MEAN_ANOMALY":269.7109,"EPHEMERIS_TYPE":0,"CLASSIFICATION_TYPE":"U","NORAD_CAT_ID":51813,"ELEMENT_SET_NO":999,"REV_AT_EPOCH":22568,"BSTAR":8.305e-5,"MEAN_MOTION_DOT":1.034e-5,"MEAN_MOTION_DDOT":0},{"OBJECT_NAME":"STARLINK-3599","OBJECT_ID":"2022-017AY","EPOCH":"2026-03-20T19:46:07.470048","MEAN_MOTION":15.08842739,"ECCENTRICITY":0.000136,"INCLINATION":53.217,"RA_OF_ASC_NODE":279.1401,"ARG_OF_PERICENTER":89.9569,"MEAN_ANOMALY":270.1579,"EPHEMERIS_TYPE":0,"CLASSIFICATION_TYPE":"U","NORAD_CAT_ID":51814,"ELEMENT_SET_NO":999,"REV_AT_EPOCH":22576,"BSTAR":6.6682e-5,"MEAN_MOTION_DOT":7.74e-6,"MEAN_MOTION_DDOT":0},{"OBJECT_NAME":"STARLINK-3604","OBJECT_ID":"2022-017AZ","EPOCH":"2026-03-20T19:51:26.303328","MEAN_MOTION":15.08847751,"ECCENTRICITY":0.0001102,"INCLINATION":53.2168,"RA_OF_ASC_NODE":279.1236,"ARG_OF_PERICENTER":92.5967,"MEAN_ANOMALY":267.5151,"EPHEMERIS_TYPE":0,"CLASSIFICATION_TYPE":"U","NORAD_CAT_ID":51815,"ELEMENT_SET_NO":999,"REV_AT_EPOCH":22576,"BSTAR":6.2047e-5,"MEAN_MOTION_DOT":7.0e-6,"MEAN_MOTION_DDOT":0},{"OBJECT_NAME":"STARLINK-3603","OBJECT_ID":"2022-017BA","EPOCH":"2026-03-20T20:00:01.999008","MEAN_MOTION":15.85374302,"ECCENTRICITY":3.63e-5,"INCLINATION":53.2151,"RA_OF_ASC_NODE":254.13,"ARG_OF_PERICENTER":97.5467,"MEAN_ANOMALY":62.5943,"EPHEMERIS_TYPE":0,"CLASSIFICATION_TYPE":"U","NORAD_CAT_ID":51816,"ELEMENT_SET_NO":999,"REV_AT_EPOCH":588,"BSTAR":0.00236,"MEAN_MOTION_DOT":0.00617734,"MEAN_MOTION_DDOT":0},{"OBJECT_NAME":"STARLINK-3542","OBJECT_ID":"2022-022A","EPOCH":"2026-03-20T17:11:07.906272","MEAN_MOTION":15.08846851,"ECCENTRICITY":0.0001656,"INCLINATION":53.2191,"RA_OF_ASC_NODE":329.6221,"ARG_OF_PERICENTER":98.9818,"MEAN_ANOMALY":261.1362,"EPHEMERIS_TYPE":0,"CLASSIFICATION_TYPE":"U","NORAD_CAT_ID":51852,"ELEMENT_SET_NO":999,"REV_AT_EPOCH":22342,"BSTAR":-3.6932e-5,"MEAN_MOTION_DOT":-8.76e-6,"MEAN_MOTION_DDOT":0},{"OBJECT_NAME":"STARLINK-3545","OBJECT_ID":"2022-022D","EPOCH":"2026-03-20T10:23:05.738784","MEAN_MOTION":15.08841861,"ECCENTRICITY":0.0001431,"INCLINATION":53.22,"RA_OF_ASC_NODE":330.8157,"ARG_OF_PERICENTER":97.7756,"MEAN_ANOMALY":262.3399,"EPHEMERIS_TYPE":0,"CLASSIFICATION_TYPE":"U","NORAD_CAT_ID":51855,"ELEMENT_SET_NO":999,"REV_AT_EPOCH":22459,"BSTAR":1.1181391e-5,"MEAN_MOTION_DOT":-1.1e-6,"MEAN_MOTION_DDOT":0},{"OBJECT_NAME":"STARLINK-3568","OBJECT_ID":"2022-022E","EPOCH":"2026-03-20T17:01:54.471072","MEAN_MOTION":15.08843156,"ECCENTRICITY":0.0001459,"INCLINATION":53.2187,"RA_OF_ASC_NODE":329.6612,"ARG_OF_PERICENTER":87.3343,"MEAN_ANOMALY":272.7816,"EPHEMERIS_TYPE":0,"CLASSIFICATION_TYPE":"U","NORAD_CAT_ID":51856,"ELEMENT_SET_NO":999,"REV_AT_EPOCH":22471,"BSTAR":5.8001e-5,"MEAN_MOTION_DOT":6.35e-6,"MEAN_MOTION_DDOT":0},{"OBJECT_NAME":"STARLINK-3571","OBJECT_ID":"2022-022F","EPOCH":"2026-03-20T16:46:00.571872","MEAN_MOTION":15.08837081,"ECCENTRICITY":0.0001221,"INCLINATION":53.2185,"RA_OF_ASC_NODE":329.7117,"ARG_OF_PERICENTER":91.0048,"MEAN_ANOMALY":269.1084,"EPHEMERIS_TYPE":0,"CLASSIFICATION_TYPE":"U","NORAD_CAT_ID":51857,"ELEMENT_SET_NO":999,"REV_AT_EPOCH":22468,"BSTAR":5.8559e-5,"MEAN_MOTION_DOT":6.44e-6,"MEAN_MOTION_DDOT":0},{"OBJECT_NAME":"STARLINK-3563","OBJECT_ID":"2022-022G","EPOCH":"2026-03-20T16:49:56.265888","MEAN_MOTION":15.08835403,"ECCENTRICITY":9.78e-5,"INCLINATION":53.2191,"RA_OF_ASC_NODE":329.6881,"ARG_OF_PERICENTER":89.0538,"MEAN_ANOMALY":271.0566,"EPHEMERIS_TYPE":0,"CLASSIFICATION_TYPE":"U","NORAD_CAT_ID":51858,"ELEMENT_SET_NO":999,"REV_AT_EPOCH":22468,"BSTAR":-0.00015248,"MEAN_MOTION_DOT":-2.713e-5,"MEAN_MOTION_DDOT":0},{"OBJECT_NAME":"STARLINK-3560","OBJECT_ID":"2022-022H","EPOCH":"2026-03-20T01:19:58.698336","MEAN_MOTION":15.08843575,"ECCENTRICITY":0.00014516,"INCLINATION":53.2173,"RA_OF_ASC_NODE":322.5972,"ARG_OF_PERICENTER":93.7143,"MEAN_ANOMALY":266.4016,"EPHEMERIS_TYPE":0,"CLASSIFICATION_TYPE":"U","NORAD_CAT_ID":51859,"ELEMENT_SET_NO":999,"REV_AT_EPOCH":22472,"BSTAR":3.4155942e-5,"MEAN_MOTION_DOT":2.56e-6,"MEAN_MOTION_DDOT":0},{"OBJECT_NAME":"STARLINK-3559","OBJECT_ID":"2022-022J","EPOCH":"2026-03-20T20:33:49.425120","MEAN_MOTION":15.08837771,"ECCENTRICITY":0.0001361,"INCLINATION":53.217,"RA_OF_ASC_NODE":318.9882,"ARG_OF_PERICENTER":88.5869,"MEAN_ANOMALY":271.5279,"EPHEMERIS_TYPE":0,"CLASSIFICATION_TYPE":"U","NORAD_CAT_ID":51860,"ELEMENT_SET_NO":999,"REV_AT_EPOCH":22480,"BSTAR":2.9031e-5,"MEAN_MOTION_DOT":1.74e-6,"MEAN_MOTION_DDOT":0},{"OBJECT_NAME":"STARLINK-3562","OBJECT_ID":"2022-022K","EPOCH":"2026-03-20T01:08:00.233088","MEAN_MOTION":15.08836016,"ECCENTRICITY":0.00014282,"INCLINATION":53.2187,"RA_OF_ASC_NODE":322.6287,"ARG_OF_PERICENTER":91.7337,"MEAN_ANOMALY":268.3818,"EPHEMERIS_TYPE":0,"CLASSIFICATION_TYPE":"U","NORAD_CAT_ID":51861,"ELEMENT_SET_NO":999,"REV_AT_EPOCH":22459,"BSTAR":-1.646588e-5,"MEAN_MOTION_DOT":-5.5e-6,"MEAN_MOTION_DDOT":0},{"OBJECT_NAME":"STARLINK-3508","OBJECT_ID":"2022-022L","EPOCH":"2026-03-20T09:20:49.978176","MEAN_MOTION":15.08834359,"ECCENTRICITY":0.00012642,"INCLINATION":53.2177,"RA_OF_ASC_NODE":321.0889,"ARG_OF_PERICENTER":96.6113,"MEAN_ANOMALY":263.5023,"EPHEMERIS_TYPE":0,"CLASSIFICATION_TYPE":"U","NORAD_CAT_ID":51862,"ELEMENT_SET_NO":999,"REV_AT_EPOCH":22478,"BSTAR":-0.00010908633,"MEAN_MOTION_DOT":-2.023e-5,"MEAN_MOTION_DDOT":0}]
