STARLINK-3607           
1 51809U 22017AT  26079.29652766  .00002590  00000+0  18083-3 0  9990
2 51809  53.2174 291.4680 0001547  79.7586 280.3580 15.08831152225667
STARLINK-3613           
1 51810U 22017AU  26079.86420927  .00000295  00000+0  36607-4 0  9990
2 51810  53.2175 279.1784 0001353  92.2200 267.8947 15.08836509225765
STARLINK-3569           
1 51811U 22017AV  26079.55782334  .00000462  00000+0  47110-4 0  9997
2 51811  53.2178 290.3326 0001543  89.2855 270.8314 15.08834148225601
STARLINK-3610           
1 51812U 22017AW  26079.56609965 -.00000256  00000+0  20032-5 0  9994
2 51812  53.2164 280.2957 0001569  97.0507 263.0664 15.08839407225722
STARLINK-3552           
1 51813U 22017AX  26079.28275168  .00001034  00000+0  83050-4 0  9990
2 51813  53.2173 281.5976 0001349  90.4037 269.7109 15.08848779225683
STARLINK-3599           
1 51814U 22017AY  26079.82369757  .00000774  00000+0  66682-4 0  9991
2 51814  53.2170 279.1401 0001360  89.9569 270.1579 15.08842739225769
STARLINK-3604           
1 51815U 22017AZ  26079.82738777  .00000700  00000+0  62047-4 0  9994
2 51815  53.2168 279.1236 0001102  92.5967 267.5151 15.08847751225764
STARLINK-3603           
1 51816U 22017BA  26079.83335647  .00617734  00000+0  23600-2 0  9996
2 51816  53.2151 254.1300 0000363  97.5467  62.5943 15.85374302  5883
STARLINK-3542           
1 51852U 22022A   26079.71606373 -.00000876  00000+0 -36932-4 0  9995
2 51852  53.2191 329.6221 0001656  98.9818 261.1362 15.08846851223420
STARLINK-3545           
1 51855U 22022D   26079.43270531 -.00000110  00000+0  11181-4 0  9999
2 51855  53.2200 330.8157 0001431  97.7756 262.3399 15.08841861224593
STARLINK-3568           
1 51856U 22022E   26079.70965823  .00000635  00000+0  58001-4 0  9998
2 51856  53.2187 329.6612 0001459  87.3343 272.7816 15.08843156224719
STARLINK-3571           
1 51857U 22022F   26079.69861773  .00000644  00000+0  58559-4 0  9994
2 51857  53.2185 329.7117 0001221  91.0048 269.1084 15.08837081224683
STARLINK-3563           
1 51858U 22022G   26079.70134567 -.00002713  00000+0 -15248-3 0  9999
2 51858  53.2191 329.6881 0000978  89.0538 271.0566 15.08835403224680
STARLINK-3560           
1 51859U 22022H   26079.05554049  .00000256  00000+0  34156-4 0  9997
2 51859  53.2173 322.5972 0001451  93.7143 266.4016 15.08843575224727
STARLINK-3559           
1 51860U 22022J   26079.85682205  .00000174  00000+0  29031-4 0  9998
2 51860  53.2170 318.9882 0001361  88.5869 271.5279 15.08837771224800
STARLINK-3562           
1 51861U 22022K   26079.04722492 -.00000550  00000+0 -16466-4 0  9991
2 51861  53.2187 322.6287 0001428  91.7337 268.3818 15.08836016224590
STARLINK-3508           
1 51862U 22022L   26079.38946734 -.00002023  00000+0 -10909-3 0  9998
2 51862  53.2177 321.0889 0001264  96.6113 263.5023 15.08834359224789
